NORAD_CAT_ID,OBJECT_NAME,OBJECT_TYPE,EPOCH,MEAN_MOTION,ECCENTRICITY,INCLINATION,RA_OF_ASC_NODE,ARG_OF_PERICENTER,MEAN_ANOMALY,BSTAR,MEAN_MOTION_DOT,MEAN_MOTION_DDOT,TLE_LINE0,TLE_LINE1,TLE_LINE2,SEMIMAJOR_AXIS,PERIOD,APOGEE,PERIGEE,DECAYED
52129.0,STARLINK-3661,PAYLOAD,2023-04-13 15:29:17,15.0885518,0.0001081,53.215,152.3328,88.5008,271.6108,0.00061915,9.584e-05,0.0,0 STARLINK-3661,1 52129U 22029AT  23103.64534604  .00009584  00000-0  61915-3 0  9996,2 52129  53.2150 152.3328 0001081  88.5008 271.6108 15.08855180 60754,6917.834,95.437,540.447,538.951,0.0
52129.0,STARLINK-3661,PAYLOAD,2023-04-13 20:15:27,15.08845643,0.0001661,53.2166,151.4427,89.1092,271.009,0.00058232,8.993e-05,0.0,0 STARLINK-3661,1 52129U 22029AT  23103.84407368  .00008993  00000-0  58232-3 0  9995,2 52129  53.2166 151.4427 0001661  89.1092 271.0090 15.08845643 60785,6917.863,95.437,540.877,538.579,0.0
52129.0,STARLINK-3661,PAYLOAD,2023-04-14 10:33:55,15.08853933,0.0001417,53.2162,148.7656,86.4569,273.6586,0.00053612,8.258e-05,0.0,0 STARLINK-3661,1 52129U 22029AT  23104.44022630  .00008258  00000-0  53612-3 0  9998,2 52129  53.2162 148.7656 0001417  86.4569 273.6586 15.08853933 60871,6917.838,95.437,540.683,538.723,0.0
52129.0,STARLINK-3661,PAYLOAD,2023-04-15 02:27:46,15.08856798,0.0001642,53.2156,145.7953,80.0336,280.0842,0.00010368,1.363e-05,0.0,0 STARLINK-3661,1 52129U 22029AT  23105.10261954  .00001363  00000-0  10368-3 0  9997,2 52129  53.2156 145.7953 0001642  80.0336 280.0842 15.08856798 60973,6917.829,95.436,540.83,538.558,0.0
52129.0,STARLINK-3661,PAYLOAD,2023-04-15 08:49:18,15.08852538,0.0001563,53.2163,144.6032,83.2564,276.8606,-3.4767e-05,-8.42e-06,0.0,0 STARLINK-3661,1 52129U 22029AT  23105.36758004 -.00000842  00000-0 -34767-4 0  9995,2 52129  53.2163 144.6032 0001563  83.2564 276.8606 15.08852538 61012,6917.842,95.437,540.788,538.626,0.0
52129.0,STARLINK-3661,PAYLOAD,2023-04-15 19:57:00,15.08846749,0.0001507,53.2153,142.5209,86.7276,273.3888,-7.1197e-05,-1.421e-05,0.0,0 STARLINK-3661,1 52129U 22029AT  23105.83126021 -.00001421  00000-0 -71197-4 0  9997,2 52129  53.2153 142.5209 0001507  86.7276 273.3888 15.08846749 61088,6917.86,95.437,540.767,538.682,0.0
52129.0,STARLINK-3661,PAYLOAD,2023-04-16 08:40:06,15.08846223,0.0001421,53.2161,140.1411,87.4635,272.652,-5.4627e-05,-1.157e-05,0.0,0 STARLINK-3661,1 52129U 22029AT  23106.36118239 -.00001157  00000-0 -54627-4 0  9993,2 52129  53.2161 140.1411 0001421  87.4635 272.6520 15.08846223 61169,6917.861,95.437,540.709,538.743,0.0
52129.0,STARLINK-3661,PAYLOAD,2023-04-16 19:47:47,15.08848673,0.0001465,53.2159,138.0595,91.7867,268.3293,-8.9033e-05,-1.705e-05,0.0,0 STARLINK-3661,1 52129U 22029AT  23106.82485965 -.00001705  00000-0 -89033-4 0  9995,2 52129  53.2159 138.0595 0001465  91.7867 268.3293 15.08848673 61236,6917.854,95.437,540.732,538.705,0.0
52129.0,STARLINK-3661,PAYLOAD,2023-04-17 02:09:20,15.08841008,0.0001481,53.2158,136.87,89.9601,270.1561,3.2145e-05,2.24e-06,0.0,0 STARLINK-3661,1 52129U 22029AT  23107.08982143  .00000224  00000-0  32145-4 0  9999,2 52129  53.2158 136.8700 0001481  89.9601 270.1561 15.08841008 61270,6917.877,95.437,540.767,538.718,0.0
52129.0,STARLINK-3661,PAYLOAD,2023-04-17 08:30:53,15.08840661,0.0001502,53.2164,135.6813,85.114,275.0024,2.7436e-05,1.49e-06,0.0,0 STARLINK-3661,1 52129U 22029AT  23107.35478189  .00000149  00000-0  27436-4 0  9992,2 52129  53.2164 135.6813 0001502  85.1140 275.0024 15.08840661 61316,6917.878,95.438,540.782,538.704,0.0
52129.0,STARLINK-3661,PAYLOAD,2023-04-18 06:46:17,15.08837954,0.0001394,53.2163,131.5173,89.8391,270.2761,7.6381e-05,9.28e-06,0.0,0 STARLINK-3661,1 52129U 22029AT  23108.28214265  .00000928  00000-0  76381-4 0  9996,2 52129  53.2163 131.5173 0001394  89.8391 270.2761 15.08837954 61458,6917.887,95.438,540.716,538.787,0.0
52129.0,STARLINK-3661,PAYLOAD,2023-04-18 11:32:26,15.08840818,0.0001412,53.2168,130.6257,89.9376,270.1778,8.3758e-05,1.045e-05,0.0,0 STARLINK-3661,1 52129U 22029AT  23108.48086076  .00001045  00000-0  83758-4 0  9992,2 52129  53.2168 130.6257 0001412  89.9376 270.1778 15.08840818 61484,6917.878,95.438,540.72,538.766,0.0
52129.0,STARLINK-3661,PAYLOAD,2023-04-18 17:53:59,15.08834825,0.0001418,53.2166,129.4363,87.8203,272.2951,2.4736e-05,1.06e-06,0.0,0 STARLINK-3661,1 52129U 22029AT  23108.74582682  .00000106  00000-0  24736-4 0  9993,2 52129  53.2166 129.4363 0001418  87.8203 272.2951 15.08834825 61520,6917.896,95.438,540.742,538.78,0.0
52129.0,STARLINK-3661,PAYLOAD,2023-04-19 09:47:50,15.08838576,0.0001447,53.2171,126.4624,95.1396,264.9762,4.5617e-05,4.38e-06,0.0,0 STARLINK-3661,1 52129U 22029AT  23109.40822540  .00000438  00000-0  45617-4 0  9996,2 52129  53.2171 126.4624 0001447  95.1396 264.9762 15.08838576 61626,6917.885,95.438,540.751,538.749,0.0
52129.0,STARLINK-3661,PAYLOAD,2023-04-19 17:44:46,15.08836013,0.0001417,53.2171,124.9758,92.813,267.3024,3.2414e-05,2.28e-06,0.0,0 STARLINK-3661,1 52129U 22029AT  23109.73942791  .00000228  00000-0  32414-4 0  9991,2 52129  53.2171 124.9758 0001417  92.8130 267.3024 15.08836013 61671,6917.893,95.438,540.738,538.777,0.0
52129.0,STARLINK-3661,PAYLOAD,2023-04-20 09:38:37,15.08837406,0.000135,53.2169,122.0023,95.2296,264.885,3.7951e-05,3.16e-06,0.0,0 STARLINK-3661,1 52129U 22029AT  23110.40182826  .00000316  00000-0  37951-4 0  9991,2 52129  53.2169 122.0023 0001350  95.2296 264.8850 15.08837406 61775,6917.888,95.438,540.687,538.819,0.0
52129.0,STARLINK-3661,PAYLOAD,2023-04-20 17:35:32,15.08850089,0.0001362,53.2172,120.5156,97.6364,262.4783,1.0859e-05,-1.15e-06,0.0,0 STARLINK-3661,1 52129U 22029AT  23110.73301999 -.00000115  00000-0  10859-4 0  9997,2 52129  53.2172 120.5156 0001362  97.6364 262.4783 15.08850089 61821,6917.85,95.437,540.657,538.772,0.0
52129.0,STARLINK-3661,PAYLOAD,2023-04-21 06:18:37,15.08849875,0.0001286,53.2173,118.1369,95.7696,264.3443,0.00014258,1.983e-05,0.0,0 STARLINK-3661,1 52129U 22029AT  23111.26293499  .00001983  00000-0  14258-3 0  9990,2 52129  53.2173 118.1369 0001286  95.7696 264.3443 15.08849875 61907,6917.85,95.437,540.605,538.826,0.0
52129.0,STARLINK-3661,PAYLOAD,2023-04-21 07:54:00,15.08849972,0.0001268,53.217,117.8394,95.3121,264.8016,0.00014153,1.966e-05,0.0,0 STARLINK-3661,1 52129U 22029AT  23111.32917467  .00001966  00000-0  14153-3 0  9990,2 52129  53.2170 117.8394 0001268  95.3121 264.8016 15.08849972 61917,6917.85,95.437,540.592,538.838,0.0
52129.0,STARLINK-3661,PAYLOAD,2023-04-22 01:23:16,15.08835955,0.0001152,53.2166,114.5687,94.8516,265.2608,5.5275e-05,5.92e-06,0.0,0 STARLINK-3661,1 52129U 22029AT  23112.05782615  .00000592  00000-0  55275-4 0  9991,2 52129  53.2166 114.5687 0001152  94.8516 265.2608 15.08835955 62026,6917.893,95.438,540.555,538.961,0.0
52129.0,STARLINK-3661,PAYLOAD,2023-04-22 17:17:07,15.08836363,0.000113,53.2162,111.5958,84.0392,276.0729,-2.0022e-05,-6.06e-06,0.0,0 STARLINK-3661,1 52129U 22029AT  23112.72022962 -.00000606  00000-0 -20022-4 0  9997,2 52129  53.2162 111.5958 0001130  84.0392 276.0729 15.08836363 62128,6917.892,95.438,540.538,538.975,0.0
52129.0,STARLINK-3661,PAYLOAD,2023-04-23 09:10:58,15.08841489,0.0001063,53.216,108.6222,80.8336,279.2776,2.7286e-05,1.47e-06,0.0,0 STARLINK-3661,1 52129U 22029AT  23113.38262455  .00000147  00000-0  27286-4 0  9990,2 52129  53.2160 108.6222 0001063  80.8336 279.2776 15.08841489 62227,6917.876,95.437,540.476,539.005,0.0
52129.0,STARLINK-3661,PAYLOAD,2023-04-24 10:37:07,15.08853875,0.0001306,53.2169,103.864,77.8377,282.2761,0.00025666,3.801e-05,0.0,0 STARLINK-3661,1 52129U 22029AT  23114.44245213  .00003801  00000-0  25666-3 0  9990,2 52129  53.2169 103.8640 0001306  77.8377 282.2761 15.08853875 62385,6917.838,95.437,540.606,538.8,0.0
52129.0,STARLINK-3661,PAYLOAD,2023-04-25 10:27:56,15.08841475,0.000144,53.2175,99.4024,87.303,272.8127,4.5698e-05,4.39e-06,0.0,0 STARLINK-3661,1 52129U 22029AT  23115.43606553  .00000439  00000-0  45698-4 0  9990,2 52129  53.2175  99.4024 0001440  87.3030 272.8127 15.08841475 62530,6917.876,95.437,540.737,538.745,0.0
52129.0,STARLINK-3661,PAYLOAD,2023-04-26 10:18:44,15.08827607,0.0001273,53.217,94.944,100.2726,259.8409,-0.00018278,-3.195e-05,0.0,0 STARLINK-3661,1 52129U 22029AT  23116.42967739 -.00003195  00000-0 -18278-3 0  9993,2 52129  53.2170  94.9440 0001273 100.2726 259.8409 15.08827607 62683,6917.918,95.438,540.664,538.903,0.0
52129.0,STARLINK-3661,PAYLOAD,2023-04-26 15:04:53,15.08829513,0.0001215,53.2166,94.0523,100.8806,259.2323,-0.00011733,-2.154e-05,0.0,0 STARLINK-3661,1 52129U 22029AT  23116.62839808 -.00002154  00000-0 -11733-3 0  9993,2 52129  53.2166  94.0523 0001215 100.8806 259.2323 15.08829513 62713,6917.912,95.438,540.618,538.937,0.0
52129.0,STARLINK-3661,PAYLOAD,2023-04-27 10:09:30,15.08841792,0.0001564,53.2182,90.482,132.5815,227.5309,0.00015425,2.168e-05,0.0,0 STARLINK-3661,1 52129U 22029AT  23117.42327493  .00002168  00000-0  15425-3 0  9999,2 52129  53.2182  90.4820 0001564 132.5815 227.5309 15.08841792 62838,6917.875,95.437,540.822,538.658,0.0
52129.0,STARLINK-3661,PAYLOAD,2023-04-28 06:49:31,15.08855287,0.0001099,53.217,86.6168,105.7706,254.3407,0.00043717,6.679e-05,0.0,0 STARLINK-3661,1 52129U 22029AT  23118.28439394  .00006679  00000-0  43717-3 0  9994,2 52129  53.2170  86.6168 0001099 105.7706 254.3407 15.08855287 62966,6917.834,95.437,540.459,538.938,0.0
52129.0,STARLINK-3661,PAYLOAD,2023-04-28 21:08:00,15.08847529,0.0001528,53.2165,83.9409,95.2984,264.8182,0.0001475,2.061e-05,0.0,0 STARLINK-3661,1 52129U 22029AT  23118.88055654  .00002061  00000-0  14750-3 0  9999,2 52129  53.2165  83.9409 0001528  95.2984 264.8182 15.08847529 63053,6917.857,95.437,540.779,538.665,0.0
52129.0,STARLINK-3661,PAYLOAD,2023-04-29 09:51:05,15.0884532,0.0001351,53.2169,81.5619,94.9936,265.1211,7.1827e-05,8.56e-06,0.0,0 STARLINK-3661,1 52129U 22029AT  23119.41047585  .00000856  00000-0  71827-4 0  9992,2 52129  53.2169  81.5619 0001351  94.9936 265.1211 15.08845320 63134,6917.864,95.437,540.664,538.795,0.0
